15P/Finlay,e,6.7973,13.7209,347.8441,3.503546,0.1502942,0.71687045,275.8871,01/01.0/2020,2000,g 12.0,4.0
# From MPC 92276
16P/Brooks,e,3.0054,138.9796,245.1414,3.659782,0.1407736,0.48805676,293.4514,01/01.0/2020,2000,g  7.5,10.0
# From MPC114607
17P/Holmes,e,19.0226,326.6596,24.5725,3.635381,0.1421933,0.42824837,300.8358,01/01.0/2020,2000,g 10.0,6.0
# From MPC 92984
19P/Borrelly,e,29.7059,74.6219,351.8059,3.598959,0.1443573,0.64017997,250.0374,01/01.0/2020,2000,g  4.5,10.0
# From MPC111773
21P/Giacobini-Zinner,e,32.0036,195.3762,172.8488,3.496475,0.1507504,0.71050738,72.0129,01/01.0/2020,2000,g  9.0,6.0
# From MPC 94283
22P/Kopff,e,4.7414,120.8359,162.9398,3.443624,0.1542341,0.54882202,235.5422,01/01.0/2020,2000,g  3.0,10.4
# From MPC 14747
23P/Brorsen-Metcalf,e,19.1611,312.3083,128.9349,16.95755,0.0141143,0.97090828,0.0000,08/17.7255/1989,2000,g 10.0,6.0
# From MPC110085
24P/Schaumasse,e,11.7290,79.5812,57.7411,4.069834,0.1200436,0.70703890,92.9501,01/01.0/2020,2000,g  6.5,14.0
# From MPC 94674
26P/Grigg-Skjellerup,e,22.4477,211.5348,2.1943,3.013774,0.1883814,0.64079184,85.9479,01/01.0/2020,2000,g 12.0,16.0
# From MPC 78188
27P/Crommelin,e,29.1110,250.5735,196.0162,9.193201,0.0353593,0.91790973,108.9590,01/01.0/2020,2000,g 12.0,8.0
# From MPC114607
28P/Neujmin,e,14.3116,346.3467,347.4391,6.967896,0.0535860,0.77355204,336.6373,01/01.0/2020,2000,g  8.5,6.0
# From MPEC 2019-VB6
29P/Schwassmann-Wachmann,e,9.3671,312.3825,47.9912,6.030400,0.0665556,0.04368689,19.7257,01/01.0/2020,2000,g  4.0,4.0
# From MPC110085
30P/Reinmuth,e,8.2980,119.0629,13.1598,3.749635,0.1357440,0.51116168,116.7671,01/01.0/2020,2000,g  9.5,6.0
# From MPC108597
31P/Schwassmann-Wachmann,e,4.5473,114.1128,18.3251,4.242811,0.1127778,0.19267622,20.1913,01/01.0/2020,2000,g  5.0,8.0
# From MPC 92276
32P/Comas Sola,e,9.9432,57.6547,53.3089,4.498730,0.1032926,0.55675493,196.5546,01/01.0/2020,2000,g  6.5,8.0
# From MPEC 2013-O31
33P/Daniel,e,22.3626,66.3725,20.6449,4.079572,0.1196140,0.45374922,147.4021,01/01.0/2020,2000,g 10.0,12.0
# From  15, 452
35P/Herschel-Rigollet,e,64.493,356.240,29.134,28.5701,0.006454,0.9733318,0.000,12/25.5774/2091,2000,g  9.0,4.0
# From MPC105240
36P/Whipple,e,9.9529,181.8638,200.7570,4.129828,0.1174373,0.26832869,342.1995,01/01.0/2020,2000,g  8.5,6.0
# From MPEC 2018-HA5
37P/Forbes,e,8.9565,314.5700,330.0536,3.458561,0.1532361,0.53417978,92.9801,01/01.0/2020,2000,g 10.5,4.8
# From MPEC 2018-S50
38P/Stephan-Oterma,e,18.3534,77.9978,359.5617,11.26794,0.0260578,0.85904629,10.8418,01/01.0/2020,2000,g  3.5,12.0
# From MPC115887
39P/Oterma,e,1.5611,299.2546,94.7865,7.411844,0.0488444,0.22354760,300.1225,01/01.0/2020,2000,g  7.0,6.0
# From MPC100283
40P/Vaisala,e,11.4718,133.7924,47.4635,4.949740,0.0895015,0.63028668,167.7137,01/01.0/2020,2000,g  5.5,12.0
# From MPC105240
41P/Tuttle-Giacobini-Kresak,e,9.2219,141.0086,62.2567,3.085629,0.1818396,0.66051222,180.6727,01/01.0/2020,2000,g 10.0,16.0
# From MPC 94283
42P/Neujmin,e,3.9880,150.2048,147.1405,4.873060,0.0916223,0.58536840,158.2160,01/01.0/2020,2000,g 13.0,6.0
# From MPC102956
43P/Wolf-Harrington,e,9.4963,244.7677,223.7963,4.297072,0.1106484,0.44323099,134.0676,01/01.0/2020,2000,g  8.0,6.0
# From MPC 89313
44P/Reinmuth,e,5.8982,286.4822,58.1228,3.689037,0.1391024,0.42690659,242.6278,01/01.0/2020,2000,g  8.3,6.0
# From MPC103849
45P/Honda-Mrkos-Pajdusakova,e,4.3264,87.6933,327.9882,3.049127,0.1851147,0.81791690,203.4430,01/01.0/2020,2000,g 13.5,8.0
# From MPC114607
46P/Wirtanen,e,11.7449,82.1531,356.3663,3.091892,0.1812874,0.65854278,69.6333,01/01.0/2020,2000,g 14.0,6.0
# From NK 2718
47P/Ashbrook-Jackson,e,13.0316,356.9364,357.6057,4.125792,0.1176097,0.31765719,109.9435,01/01.0/2020,2000,g  9.0,4.0
# From MPEC 2015-M77
48P/Johnson,e,12.2077,110.1272,216.6024,3.500007,0.1505223,0.42724979,76.2641,01/01.0/2020,2000,g  9.0,4.0
# From MPEC 2015-M77
49P/Arend-Rigaux,e,19.0445,118.8046,332.9513,3.569517,0.1461470,0.59902452,78.1353,01/01.0/2020,2000,g  9.0,4.0
# From MPEC 2015-S97
50P/Arend,e,19.0962,355.1536,49.3701,4.089718,0.1191692,0.52846608,169.8087,01/01.0/2020,2000,g  9.5,6.0
# From NK 3013
51P-A/Harrington,e,5.4254,83.6774,269.2314,3.708808,0.1379915,0.54274363,221.2818,01/01.0/2020,2000,g 16.0,8.0
# From NK 3014
51P-A/Harrington,e,5.4247,83.6930,269.1921,3.709833,0.1379344,0.54281532,221.0383,01/01.0/2020,2000,g 10.0,8.0
# From NK 3014
51P-A/Harrington,e,5.4247,83.6930,269.1921,3.709815,0.1379354,0.54281223,221.0413,01/01.0/2020,2000,g 10.0,8.0
# From MPEC 2015-L08
51P-D/Harrington,e,5.4261,83.6830,269.1815,3.708899,0.1379865,0.54275774,221.2781,01/01.0/2020,2000,g 16.0,8.0
# From MPEC 2015-L08
51P-D/Harrington,e,5.4262,83.6819,269.1823,3.708886,0.1379872,0.54275832,221.2830,01/01.0/2020,2000,g 16.0,8.0
# From NK 3013
51P-D/Harrington,e,5.4254,83.6778,269.2311,3.708808,0.1379916,0.54274381,221.2820,01/01.0/2020,2000,g 16.0,8.0
# From NK 3013
51P-D/Harrington,e,5.4254,83.6778,269.2311,3.708808,0.1379916,0.54274395,221.2820,01/01.0/2020,2000,g 16.0,8.0
# From MPC 88330
52P/Harrington-Abell,e,10.2308,336.8378,139.6024,3.861890,0.1298686,0.53960158,276.4433,01/01.0/2020,2000,g 13.5,6.0
# From MPC100283
53P/Van Biesbroeck,e,6.6074,148.8516,134.3588,5.423305,0.0780383,0.55234325,104.5893,01/01.0/2020,2000,g  7.7,4.8
# From MPC 89011
54P/de Vico-Swift-NEAT,e,6.0599,358.8186,1.7698,3.793901,0.1333752,0.42514780,132.0981,01/01.0/2020,2000,g  9.0,4.0
# From MPC 31070
55P/Tempel-Tuttle,e,162.3616,235.4044,172.5568,10.34576,0.0296183,0.90684820,236.9233,01/01.0/2020,2000,g  9.0,4.0
# From MPC101100
56P/Slaughter-Burnham,e,8.1553,345.9764,44.0531,5.073444,0.0862481,0.50652669,108.8354,01/01.0/2020,2000,g  8.5,6.0
# From MPC 98565
57P/du Toit-Neujmin-Delporte,e,2.8497,188.7829,115.1936,3.447718,0.1539595,0.50063544,259.0879,01/01.0/2020,2000,g 12.5,6.0
# From NK 778
58P/Jackson-Neujmin,e,13.1004,159.0696,200.4564,4.083627,0.1194359,0.66267332,342.6767,01/01.0/2020,2000,g  9.0,4.0
# From MPC111774
59P/Kearns-Kwee,e,9.3411,312.8294,127.6521,4.490977,0.1035602,0.47490229,48.8168,01/01.0/2020,2000,g  7.0,6.0
# From MPEC 2015-M77
60P/Tsuchinshan,e,3.6066,267.5820,216.6303,3.512487,0.1497207,0.53766191,57.7468,01/01.0/2020,2000,g  9.0,4.0
# From MPEC 2015-Q71
61P/Shajn-Schaldach,e,5.9991,162.9921,221.9250,3.684190,0.1393770,0.42382685,216.7342,01/01.0/2020,2000,g  6.0,10.0
# From MPC109147
62P/Tsuchinshan,e,9.6909,90.0931,29.8709,3.417319,0.1560184,0.61562975,119.0257,01/01.0/2020,2000,g  8.0,10.0
# From MPC 84320
63P/Wild,e,19.7451,358.0138,169.1673,5.603752,0.0742995,0.64930033,182.7055,01/01.0/2020,2000,g 10.5,6.0
# From MPC111774
64P/Swift-Gehrels,e,8.9500,299.9989,97.1206,4.456128,0.1047774,0.68749180,44.3325,01/01.0/2020,2000,g  9.5,12.0
# From MPC104795
65P/Gunn,e,9.1841,62.0229,213.7373,3.883161,0.1288030,0.24999257,103.7359,01/01.0/2020,2000,g  5.0,6.0
# From MPC109147
66P/du Toit,e,18.6664,21.8847,257.2659,6.060295,0.0660638,0.78698440,39.0962,01/01.0/2020,2000,g  9.0,4.0
# From MPC 89011
67P/Churyumov-Gerasimenko,e,3.9179,37.3485,21.4783,3.448651,0.1538970,0.65429046,257.0376,01/01.0/2020,2000,g 11.0,4.0
# From MPC 75716
68P/Klemola,e,11.1109,175.0822,153.0601,4.948441,0.0895368,0.63749055,4.7418,01/01.0/2020,2000,g 10.0,4.0
# From MPC114607
69P/Taylor,e,22.0330,104.8306,343.5407,3.890565,0.1284355,0.41312955,37.0705,01/01.0/2020,2000,g  9.5,12.0
# From MPC 92276
70P/Kojima,e,6.5982,119.2678,1.8698,3.674960,0.1399024,0.45326562,265.9340,01/01.0/2020,2000,g 11.0,6.0
# From MPC107051
71P/Clark,e,9.4427,59.4421,208.9968,3.138033,0.1773037,0.49426248,162.1481,01/01.0/2020,2000,g  9.8,6.0
# From MPC 89011
72P/Denning-Fujikawa,e,10.9256,26.6917,346.6665,4.311960,0.1100758,0.81785085,221.0154,01/01.0/2020,2000,g 17.5,10.0
# From MPC106348
73P/Schwassmann-Wachmann,e,11.2360,69.6545,199.4280,3.093123,0.1811792,0.68574432,184.7556,01/01.0/2020,2000,g 11.5,6.0
# From MPC106348
73P-T/Schwassmann-Wachmann,e,11.2381,69.6571,199.4095,3.094682,0.1810423,0.68594758,184.6169,01/01.0/2020,2000,g 11.5,6.0
# From MPC102956
74P/Smirnova-Chernykh,e,6.6437,77.0509,89.1326,4.185701,0.1150938,0.15260695,79.5506,01/01.0/2020,2000,g  5.0,6.0
# From MPC118097
76P/West-Kohoutek-Ikemura,e,30.4568,84.1250,0.0208,3.475107,0.1521429,0.53820327,10.1719,01/01.0/2020,2000,g  8.0,12.0
# From MPC100283
77P/Longmore,e,24.3299,14.8048,196.8677,3.619803,0.1431122,0.35266804,190.0039,01/01.0/2020,2000,g  7.0,8.0
# From MPEC 2016-U66
78P/Gehrels,e,6.2485,210.5418,192.6714,3.740547,0.1362390,0.46167998,37.2389,01/01.0/2020,2000,g  9.0,4.0
# From MPC 94675
79P/du Toit-Hartley,e,3.1480,280.5255,281.8270,2.942818,0.1952356,0.61910877,92.6843,01/01.0/2020,2000,g 16.0,4.0
# From MPEC 2014-P41
80P/Peters-Hartley,e,29.9472,259.8220,339.2479,4.024293,0.1220871,0.59923709,229.0878,01/01.0/2020,2000,g  9.0,4.0
# From MPC105241
81P/Wild,e,3.2372,136.1095,41.7242,3.449865,0.1538158,0.53735619,193.9090,01/01.0/2020,2000,g  7.0,6.0
# From MPC 75717
82P/Gehrels,e,1.1283,239.3148,226.9792,4.138012,0.1170891,0.12188464,64.7361,01/01.0/2020,2000,g  5.0,8.0
# From MPC105241
84P/Giclas,e,7.5523,108.1747,281.5506,3.547860,0.1474872,0.51550302,337.1704,01/01.0/2020,2000,g  9.5,8.0
# From MPC109147
86P/Wild,e,15.4761,72.3781,179.2921,3.604525,0.1440230,0.37266055,249.3605,01/01.0/2020,2000,g 11.0,6.0
# From MPC105241
87P/Bus,e,2.6023,181.8621,24.9214,3.438003,0.1546125,0.38921982,340.0199,01/01.0/2020,2000,g  7.2,10.0
# From MPEC 2019-JE2
88P/Howell,e,4.3838,56.6860,235.9136,3.105317,0.1801130,0.56423753,311.4353,01/01.0/2020,2000,g 11.0,6.0
# From MPC100283
89P/Russell,e,12.0720,41.4253,250.2411,3.753896,0.1355129,0.40865889,150.6343,01/01.0/2020,2000,g 11.5,6.0
# From MPC107051
90P/Gehrels,e,9.6386,13.2206,29.1426,6.057192,0.0661145,0.50946867,61.2352,01/01.0/2020,2000,g  8.5,6.0
# From MPC105241
91P/Russell,e,14.0916,247.8294,354.7602,3.890820,0.1284229,0.33060245,319.7721,01/01.0/2020,2000,g  7.5,6.0
# From MPEC 2014-J58
92P/Sanguin,e,19.4702,181.3997,163.7041,5.346294,0.0797306,0.66021184,140.7915,01/01.0/2020,2000,g 12.0,6.0
